IRIDIUM 26              
1 24903U 97043A   25113.11066810  .00000685  00000+0  22433-3 0  9991
2 24903  86.3938 133.7635 0002113  90.7942 269.3498 14.37092022448831
IRIDIUM 22              
1 24907U 97043E   25113.76166053  .00000587  00000+0  19576-3 0  9991
2 24907  86.3947 136.9806 0002305  92.2167 267.9294 14.35913420448963
DUMMY MASS 1            
1 24925U 97048A   25113.10012699  .00000667  00000+0  71539-4 0  9997
2 24925  86.3373 160.7950 0006308   3.7872 356.3399 14.86936498496944
DUMMY MASS 2            
1 24926U 97048B   25113.12042031  .00000659  00000+0  70955-4 0  9995
2 24926  86.3376 162.3811 0007573  12.3368 347.8041 14.86689312496728
IRIDIUM 29              
1 24944U 97051A   25113.66442644  .00000644  00000+0  21337-3 0  9995
2 24944  86.3997 166.7569 0002507  93.4836 266.6647 14.36416750445449
IRIDIUM 33              
1 24946U 97051C   25113.09850694  .00000412  00000+0  13835-3 0  9999
2 24946  86.3912 166.2499 0005631 252.8658 107.1922 14.34856437444845
IRIDIUM 28              
1 24948U 97051E   25113.11622266  .00000573  00000+0  18542-3 0  9994
2 24948  86.4000 164.5363 0001850  94.0410 266.0999 14.37342559445936
IRIDIUM 36              
1 24967U 97056C   25113.78409298  .00000661  00000+0  21424-3 0  9992
2 24967  86.4030 195.8268 0002202 101.3609 258.7836 14.37560195444402
